[{"OBJECT_NAME":"STARLINK-34225","OBJECT_ID":"2025-129C","EPOCH":"2026-03-09T10:21:52.915680","MEAN_MOTION":14.98334097,"ECCENTRICITY":0.00035263,"INCLINATION":70.0011,"RA_OF_ASC_NODE":75.3047,"ARG_OF_PERICENTER":266.6625,"MEAN_ANOMALY":93.413,"EPHEMERIS_TYPE":0,"CLASSIFICATION_TYPE":"U","NORAD_CAT_ID":64414,"ELEMENT_SET_NO":999,"REV_AT_EPOCH":4124,"BSTAR":0.00014789839,"MEAN_MOTION_DOT":1.672e-5,"MEAN_MOTION_DDOT":0},{"OBJECT_NAME":"CZ-6A DEB","OBJECT_ID":"2024-140JB","EPOCH":"2026-03-09T22:07:15.667968","MEAN_MOTION":14.69602052,"ECCENTRICITY":0.01342116,"INCLINATION":88.72,"RA_OF_ASC_NODE":261.6605,"ARG_OF_PERICENTER":139.244,"MEAN_ANOMALY":221.8914,"EPHEMERIS_TYPE":0,"CLASSIFICATION_TYPE":"U","NORAD_CAT_ID":60848,"ELEMENT_SET_NO":999,"REV_AT_EPOCH":8242,"BSTAR":0.0030457487,"MEAN_MOTION_DOT":0.00020848,"MEAN_MOTION_DDOT":0}]
